KUIPER-00594            
1 69279U 26118N   26162.91892420  .00014678  00000+0  38969-3 0  9996
2 69279  51.8716  78.6228 0001086  74.2858 285.8249 15.38507956  3173
KUIPER-00595            
1 69280U 26118P   26162.92076322  .00024506  00000+0  64505-3 0  9990
2 69280  51.8704  78.6377 0001937 114.0109 246.1081 15.38407926  3208
KUIPER-00596            
1 69281U 26118Q   26162.94372794  .00008145  00000+0  24329-3 0  9996
2 69281  51.8555  78.7802 0011410 163.2604 196.8760 15.35444837  3170
KUIPER-00597            
1 69282U 26118R   26162.93211295 -.00008278  00000+0 -21519-3 0  9991
2 69282  51.8646  78.7134 0006928 149.5654 210.5736 15.36909203  3171
KUIPER-00599            
1 69283U 26118S   26162.93043265  .00012637  00000+0  35088-3 0  9990
2 69283  51.8686  78.7019 0006351 144.1056 216.0358 15.37245626  3179
KUIPER-00600            
1 69284U 26118T   26162.93532659  .00016145  00000+0  45419-3 0  9998
2 69284  51.8639  78.7336 0008876 153.5525 206.5916 15.36600482  3177
KUIPER-00601            
1 69285U 26118U   26162.92790318 -.00010644  00000+0 -27437-3 0  9996
2 69285  51.8699  78.6848 0004772 132.1380 228.0013 15.37530832  3173
KUIPER-00602            
1 69286U 26118V   26162.92381354  .00013968  00000+0  37710-3 0  9998
2 69286  51.8698  78.6582 0003156 128.0030 232.1243 15.38033844  3172
KUIPER-00603            
1 69287U 26118W   26162.92890933  .00017208  00000+0  47088-3 0  9997
2 69287  51.8665  78.6929 0005588 139.3170 220.8235 15.37433707  3179
KUIPER-00605            
1 69288U 26118X   26162.93290491  .00017702  00000+0  49099-3 0  9995
2 69288  51.8658  78.7183 0007546 144.7195 215.4292 15.36980376  3179
KUIPER-00606            
1 69289U 26118Y   26162.92690615 -.00009662  00000+0 -24724-3 0  9993
2 69289  51.8689  78.6783 0004712 128.1249 232.0163 15.37630499  3178
KUIPER-00607            
1 69290U 26118Z   26162.92963504  .00013528  00000+0  37422-3 0  9998
2 69290  51.8675  78.6973 0006302 142.1805 217.9625 15.37296700  3175
KUIPER-00608            
1 69291U 26118AA  26162.93915512  .00018173  00000+0  52421-3 0  9993
2 69291  51.8602  78.7559 0009281 155.7983 204.3440 15.35721432  3171
KUIPER-00610            
1 69292U 26118AB  26162.92238200  .00015342  00000+0  41044-3 0  9999
2 69292  51.8717  78.6446 0002898 119.4806 240.6470 15.38234941  3174
KUIPER-00613            
1 69293U 26118AC  26162.94284131  .00014345  00000+0  42416-3 0  9992
2 69293  51.8628  78.7806 0010435 166.8141 193.3119 15.35121027  3172
KUIPER-00618            
1 69294U 26118AD  26162.91936147  .00023818  00000+0  62553-3 0  9990
2 69294  51.8713  78.6245 0001999  72.5767 287.5439 15.38494146  3175
KUIPER-00620            
1 69295U 26118AE  26162.92169528  .00022701  00000+0  60047-3 0  9999
2 69295  51.8709  78.6422 0003088  99.6427 260.4909 15.38301693  3178
STARLINK-37501          
1 69296U 26119A   26162.82940788  .00158691  00000+0  84487-3 0  9997
2 69296  97.2833 188.3576 0000915  91.9829 268.1544 15.80003110  3199
STARLINK-37496          
1 69297U 26119B   26162.89322224  .00131798  00000+0  70464-3 0  9993
2 69297  97.2836 188.4245 0001199  85.8357 274.3048 15.79982971  3209
STARLINK-37519          
1 69298U 26119C   26162.88850719  .00054490  00000+0  28444-3 0  9992
2 69298  97.2839 188.4308 0001349 106.2537 253.8880 15.80739297  3207
STARLINK-37455          
1 69299U 26119D   26162.89153019  .00128164  00000+0  68538-3 0  9991
2 69299  97.2837 188.4271 0001566  94.0956 266.0491 15.79987087  3209
STARLINK-37456          
1 69300U 26119E   26162.88767671  .00036133  00000+0  18801-3 0  9990
2 69300  97.2835 188.4320 0001293  80.5407 279.6007 15.80884740  3200
STARLINK-37630          
1 69301U 26119F   26162.91668981 -.02457093  00000+0 -21248-1 0  9992
2 69301  97.2838 188.4495 0001637  72.8968  61.8986 15.72861238  3200
STARLINK-37804          
1 69302U 26119G   26162.91668981 -.02553787  00000+0 -21227-1 0  9997
2 69302  97.2839 188.4505 0002140  75.5406  62.4033 15.73306073  3203
STARLINK-37730          
1 69303U 26119H   26162.88546030  .00106095  00000+0  54675-3 0  9991
2 69303  97.2839 188.4349 0001120  74.0718 286.0673 15.80863130  3201
STARLINK-37731          
1 69304U 26119J   26162.91668981 -.02525054  00000+0 -22058-1 0  9998
2 69304  97.2838 188.4565 0001775  75.7814  73.2422 15.72111523  3203
STARLINK-37734          
1 69305U 26119K   26162.88440984  .00160087  00000+0  81874-3 0  9996
2 69305  97.2836 188.4366 0001039 103.3974 256.7410 15.80883408  3201
STARLINK-37701          
1 69306U 26119L   26162.88414199  .00071415  00000+0  37005-3 0  9999
2 69306  97.2840 188.4361 0001087  80.5826 279.5565 15.80844842  3200
STARLINK-37732          
1 69307U 26119M   26162.88372237  .00193641  00000+0  98578-3 0  9994
2 69307  97.2837 188.4377 0001305  91.6493 268.4925 15.80896324  3209
STARLINK-37689          
1 69308U 26119N   26162.91668981 -.02418305  00000+0 -22023-1 0  9994
2 69308  97.2842 188.4620 0001832  75.8793  90.1114 15.71581352  3201
