OBJECT_NAME,OBJECT_ID,EPOCH,MEAN_MOTION,ECCENTRICITY,INCLINATION,RA_OF_ASC_NODE,ARG_OF_PERICENTER,MEAN_ANOMALY,EPHEMERIS_TYPE,CLASSIFICATION_TYPE,NORAD_CAT_ID,ELEMENT_SET_NO,REV_AT_EPOCH,BSTAR,MEAN_MOTION_DOT,MEAN_MOTION_DDOT
KUIPER-00594,2026-118N,2026-06-11T22:03:15.050880,15.38507956,.00010867,51.8716,78.6228,74.2858,285.8249,0,U,69279,999,317,.38969356E-3,.14678E-3,0
KUIPER-00595,2026-118P,2026-06-11T22:05:53.942208,15.38407926,.00019375,51.8704,78.6377,114.0109,246.1081,0,U,69280,999,320,.64504537E-3,.24506E-3,0
KUIPER-00596,2026-118Q,2026-06-11T22:38:58.094016,15.35444837,.00114108,51.8555,78.7802,163.2604,196.8760,0,U,69281,999,317,.24329354E-3,.8145E-4,0
KUIPER-00597,2026-118R,2026-06-11T22:22:14.558880,15.36909203,.00069282,51.8646,78.7134,149.5654,210.5736,0,U,69282,999,317,-.21519085E-3,-.8278E-4,0
KUIPER-00599,2026-118S,2026-06-11T22:19:49.380960,15.37245626,.00063517,51.8686,78.7019,144.1056,216.0358,0,U,69283,999,317,.35087572E-3,.12637E-3,0
KUIPER-00600,2026-118T,2026-06-11T22:26:52.217376,15.36600482,.00088766,51.8639,78.7336,153.5525,206.5916,0,U,69284,999,317,.45419104E-3,.16145E-3,0
KUIPER-00601,2026-118U,2026-06-11T22:16:10.834752,15.37530832,.00047729,51.8699,78.6848,132.1380,228.0013,0,U,69285,999,317,-.27436673E-3,-.10644E-3,0
KUIPER-00602,2026-118V,2026-06-11T22:10:17.489856,15.38033844,.00031566,51.8698,78.6582,128.0030,232.1243,0,U,69286,999,317,.37709947E-3,.13968E-3,0
KUIPER-00603,2026-118W,2026-06-11T22:17:37.766112,15.37433707,.00055888,51.8665,78.6929,139.3170,220.8235,0,U,69287,999,317,.4708807E-3,.17208E-3,0
KUIPER-00605,2026-118X,2026-06-11T22:23:22.984224,15.36980376,.00075461,51.8658,78.7183,144.7195,215.4292,0,U,69288,999,317,.49099236E-3,.17702E-3,0
KUIPER-00606,2026-118Y,2026-06-11T22:14:44.691360,15.37630499,.00047122,51.8689,78.6783,128.1249,232.0163,0,U,69289,999,317,-.24723655E-3,-.9662E-4,0
KUIPER-00607,2026-118Z,2026-06-11T22:18:40.467456,15.37296700,.00063026,51.8675,78.6973,142.1805,217.9625,0,U,69290,999,317,.37421676E-3,.13528E-3,0
KUIPER-00608,2026-118AA,2026-06-11T22:32:23.002368,15.35721432,.00092815,51.8602,78.7559,155.7983,204.3440,0,U,69291,999,317,.52421199E-3,.18173E-3,0
KUIPER-00610,2026-118AB,2026-06-11T22:08:13.804800,15.38234941,.00028981,51.8717,78.6446,119.4806,240.6470,0,U,69292,999,317,.41044481E-3,.15342E-3,0
KUIPER-00613,2026-118AC,2026-06-11T22:37:41.489184,15.35121027,.00104358,51.8628,78.7806,166.8141,193.3119,0,U,69293,999,317,.42416351E-3,.14345E-3,0
KUIPER-00618,2026-118AD,2026-06-11T22:03:52.831008,15.38494146,.00019998,51.8713,78.6245,72.5767,287.5439,0,U,69294,999,317,.62553271E-3,.23818E-3,0
KUIPER-00620,2026-118AE,2026-06-11T22:07:14.472192,15.38301693,.00030889,51.8709,78.6422,99.6427,260.4909,0,U,69295,999,317,.60047108E-3,.22701E-3,0
STARLINK-37501,2026-119A,2026-06-11T19:54:20.840832,15.80003110,.0000915,97.2833,188.3576,91.9829,268.1544,0,U,69296,999,319,.84486735E-3,.158691E-2,0
STARLINK-37496,2026-119B,2026-06-11T21:26:14.401536,15.79982971,.00011998,97.2836,188.4245,85.8357,274.3048,0,U,69297,999,320,.70463964E-3,.131798E-2,0
STARLINK-37519,2026-119C,2026-06-11T21:19:27.021216,15.80739297,.00013496,97.2839,188.4308,106.2537,253.8880,0,U,69298,999,320,.28443509E-3,.5449E-3,0
STARLINK-37455,2026-119D,2026-06-11T21:23:48.208416,15.79987087,.00015668,97.2837,188.4271,94.0956,266.0491,0,U,69299,999,320,.68537744E-3,.128164E-2,0
STARLINK-37456,2026-119E,2026-06-11T21:18:15.267744,15.80884740,.0001293,97.2835,188.4320,80.5407,279.6007,0,U,69300,999,320,.18800612E-3,.36133E-3,0
STARLINK-37630,2026-119F,2026-06-11T22:00:01.999584,15.72861238,.00016371,97.2838,188.4495,72.8968,61.8986,0,U,69301,999,320,-.21247805E-1,-.2457093E-1,0
STARLINK-37804,2026-119G,2026-06-11T22:00:01.999584,15.73306073,.00021407,97.2839,188.4505,75.5406,62.4033,0,U,69302,999,320,-.21227085E-1,-.2553787E-1,0
STARLINK-37730,2026-119H,2026-06-11T21:15:03.769920,15.80863130,.000112,97.2839,188.4349,74.0718,286.0673,0,U,69303,999,320,.54674619E-3,.106095E-2,0
STARLINK-37731,2026-119J,2026-06-11T22:00:01.999584,15.72111523,.00017752,97.2838,188.4565,75.7814,73.2422,0,U,69304,999,320,-.2205792E-1,-.2525054E-1,0
STARLINK-37734,2026-119K,2026-06-11T21:13:33.010176,15.80883408,.00010393,97.2836,188.4366,103.3974,256.7410,0,U,69305,999,320,.81874445E-3,.160087E-2,0
STARLINK-37701,2026-119L,2026-06-11T21:13:09.867936,15.80844842,.00010875,97.2840,188.4361,80.5826,279.5565,0,U,69306,999,320,.37004675E-3,.71415E-3,0
STARLINK-37732,2026-119M,2026-06-11T21:12:33.612768,15.80896324,.00013058,97.2837,188.4377,91.6493,268.4925,0,U,69307,999,320,.98578386E-3,.193641E-2,0
STARLINK-37689,2026-119N,2026-06-11T22:00:01.999584,15.71581352,.00018325,97.2842,188.4620,75.8793,90.1114,0,U,69308,999,320,-.22023276E-1,-.2418305E-1,0
